[{"OBJECT_NAME":"ONEWEB-0064","OBJECT_ID":"2020-020K","EPOCH":"2026-03-09T22:09:59.713056","MEAN_MOTION":13.11414825,"ECCENTRICITY":0.00020093,"INCLINATION":87.8857,"RA_OF_ASC_NODE":40.8048,"ARG_OF_PERICENTER":83.4094,"MEAN_ANOMALY":276.7262,"EPHEMERIS_TYPE":0,"CLASSIFICATION_TYPE":"U","NORAD_CAT_ID":45433,"ELEMENT_SET_NO":999,"REV_AT_EPOCH":28967,"BSTAR":0.00054576266,"MEAN_MOTION_DOT":2.06e-6,"MEAN_MOTION_DDOT":0},{"OBJECT_NAME":"THORAD AGENA D DEB","OBJECT_ID":"1970-025GR","EPOCH":"2026-03-08T18:49:44.375232","MEAN_MOTION":12.84713496,"ECCENTRICITY":0.03414426,"INCLINATION":99.9299,"RA_OF_ASC_NODE":2.4424,"ARG_OF_PERICENTER":49.7901,"MEAN_ANOMALY":5.5349,"EPHEMERIS_TYPE":0,"CLASSIFICATION_TYPE":"U","NORAD_CAT_ID":4971,"ELEMENT_SET_NO":999,"REV_AT_EPOCH":61479,"BSTAR":0.00068655522,"MEAN_MOTION_DOT":1.78e-6,"MEAN_MOTION_DDOT":0}]
